ONEWEB-0435             
1 51632U 22012L   24263.44304855 -.00000427  00000+0 -12598-2 0  9995
2 51632  87.8985 162.7994 0001667  87.9343 272.1976 13.10373512126050
ONEWEB-0436             
1 51633U 22012M   24263.39878608  .00000076  00000+0  16242-3 0  9991
2 51633  87.9125 132.4995 0001706  86.1053 274.0274 13.17647194129957
ONEWEB-0438             
1 51634U 22012N   24263.42645942  .00000045  00000+0  93416-4 0  9994
2 51634  87.8980 162.8033 0001726  67.6802 292.4508 13.10370221126086
ONEWEB-0439             
1 51635U 22012P   24263.42977670 -.00000160  00000+0 -49431-3 0  9998
2 51635  87.8983 162.7881 0001783  75.0121 285.1203 13.10370467126061
ONEWEB-0443             
1 51637U 22012R   24263.33419243 -.00003653  00000+0 -94504-2 0  9997
2 51637  87.9132 132.5596 0001275  86.4792 273.6485 13.17614584129980
ONEWEB-0444             
1 51638U 22012S   24263.41982845  .00000376  00000+0  10414-2 0  9995
2 51638  87.8976 162.8070 0001705  77.7837 282.3481 13.10371606126078
ONEWEB-0445             
1 51639U 22012T   24263.44138797 -.00000481  00000+0 -14136-2 0  9992
2 51639  87.8978 162.7703 0001989  68.6325 291.5014 13.10371849126082
